[
  {
    "CCSDS_OMM_VERS": "2.0",
    "COMMENT": "GENERATED VIA SPACE-TRACK.ORG API",
    "CREATION_DATE": "2025-03-19T02:27:03",
    "ORIGINATOR": "18 SPCS",
    "OBJECT_NAME": "NAVSTAR 73 (USA 260)",
    "OBJECT_ID": "2015-013A",
    "CENTER_NAME": "EARTH",
    "REF_FRAME": "TEME",
    "TIME_SYSTEM": "UTC",
    "MEAN_ELEMENT_THEORY": "SGP4",
    "EPOCH": "2025-03-18T08:43:08.598144",
    "MEAN_MOTION": "2.00548781",
    "ECCENTRICITY": "0.00976660",
    "INCLINATION": "53.2616",
    "RA_OF_ASC_NODE": "223.0377",
    "ARG_OF_PERICENTER": "34.6051",
    "MEAN_ANOMALY": "325.9869",
    "EPHEMERIS_TYPE": "0",
    "CLASSIFICATION_TYPE": "U",
    "NORAD_CAT_ID": "40534",
    "ELEMENT_SET_NO": "999",
    "REV_AT_EPOCH": "7268",
    "BSTAR": "0.00000000000000",
    "MEAN_MOTION_DOT": "0.00000028",
    "MEAN_MOTION_DDOT": "0.0000000000000",
    "SEMIMAJOR_AXIS": "26561.657",
    "PERIOD": "718.030",
    "APOAPSIS": "20442.939",
    "PERIAPSIS": "19924.104",
    "OBJECT_TYPE": "PAYLOAD",
    "RCS_SIZE": "LARGE",
    "COUNTRY_CODE": "US",
    "LAUNCH_DATE": "2015-03-25",
    "SITE": "AFETR",
    "DECAY_DATE": null,
    "FILE": "4673449",
    "GP_ID": "283453319",
    "TLE_LINE0": "0 NAVSTAR 73 (USA 260)",
    "TLE_LINE1": "1 40534U 15013A   25077.36329396  .00000028  00000-0  00000-0 0  9998",
    "TLE_LINE2": "2 40534  53.2616 223.0377 0097666  34.6051 325.9869  2.00548781 72688"
  },
  {
    "CCSDS_OMM_VERS": "2.0",
    "COMMENT": "GENERATED VIA SPACE-TRACK.ORG API",
    "CREATION_DATE": "2025-03-18T14:46:18",
    "ORIGINATOR": "18 SPCS",
    "OBJECT_NAME": "NAVSTAR 47 (USA 150)",
    "OBJECT_ID": "2000-025A",
    "CENTER_NAME": "EARTH",
    "REF_FRAME": "TEME",
    "TIME_SYSTEM": "UTC",
    "MEAN_ELEMENT_THEORY": "SGP4",
    "EPOCH": "2025-03-18T13:58:03.059040",
    "MEAN_MOTION": "2.00557566",
    "ECCENTRICITY": "0.00380450",
    "INCLINATION": "54.8762",
    "RA_OF_ASC_NODE": "37.7265",
    "ARG_OF_PERICENTER": "231.5779",
    "MEAN_ANOMALY": "279.1550",
    "EPHEMERIS_TYPE": "0",
    "CLASSIFICATION_TYPE": "U",
    "NORAD_CAT_ID": "26360",
    "ELEMENT_SET_NO": "999",
    "REV_AT_EPOCH": "18212",
    "BSTAR": "0.00000000000000",
    "MEAN_MOTION_DOT": "-0.00000065",
    "MEAN_MOTION_DDOT": "0.0000000000000",
    "SEMIMAJOR_AXIS": "26560.881",
    "PERIOD": "717.998",
    "APOAPSIS": "20283.797",
    "PERIAPSIS": "20081.695",
    "OBJECT_TYPE": "PAYLOAD",
    "RCS_SIZE": "LARGE",
    "COUNTRY_CODE": "US",
    "LAUNCH_DATE": "2000-05-11",
    "SITE": "AFETR",
    "DECAY_DATE": null,
    "FILE": "4672938",
    "GP_ID": "283396908",
    "TLE_LINE0": "0 NAVSTAR 47 (USA 150)",
    "TLE_LINE1": "1 26360U 00025A   25077.58197985 -.00000065  00000-0  00000+0 0  9998",
    "TLE_LINE2": "2 26360  54.8762  37.7265 0038045 231.5779 279.1550  2.00557566182124"
  },
  {
    "CCSDS_OMM_VERS": "2.0",
    "COMMENT": "GENERATED VIA SPACE-TRACK.ORG API",
    "CREATION_DATE": "2025-03-19T02:27:03",
    "ORIGINATOR": "18 SPCS",
    "OBJECT_NAME": "NAVSTAR 57 (USA 183)",
    "OBJECT_ID": "2005-038A",
    "CENTER_NAME": "EARTH",
    "REF_FRAME": "TEME",
    "TIME_SYSTEM": "UTC",
    "MEAN_ELEMENT_THEORY": "SGP4",
    "EPOCH": "2025-03-18T15:24:42.571296",
    "MEAN_MOTION": "2.00566806",
    "ECCENTRICITY": "0.01333700",
    "INCLINATION": "55.2605",
    "RA_OF_ASC_NODE": "291.5162",
    "ARG_OF_PERICENTER": "289.6057",
    "MEAN_ANOMALY": "64.5993",
    "EPHEMERIS_TYPE": "0",
    "CLASSIFICATION_TYPE": "U",
    "NORAD_CAT_ID": "28874",
    "ELEMENT_SET_NO": "999",
    "REV_AT_EPOCH": "14269",
    "BSTAR": "0.00000000000000",
    "MEAN_MOTION_DOT": "-0.00000015",
    "MEAN_MOTION_DDOT": "0.0000000000000",
    "SEMIMAJOR_AXIS": "26560.065",
    "PERIOD": "717.965",
    "APOAPSIS": "20536.162",
    "PERIAPSIS": "19827.699",
    "OBJECT_TYPE": "PAYLOAD",
    "RCS_SIZE": "LARGE",
    "COUNTRY_CODE": "US",
    "LAUNCH_DATE": "2005-09-26",
    "SITE": "AFETR",
    "DECAY_DATE": null,
    "FILE": "4673449",
    "GP_ID": "283446263",
    "TLE_LINE0": "0 NAVSTAR 57 (USA 183)",
    "TLE_LINE1": "1 28874U 05038A   25077.64215939 -.00000015  00000-0  00000-0 0  9992",
    "TLE_LINE2": "2 28874  55.2605 291.5162 0133370 289.6057  64.5993  2.00566806142695"
  },
  {
    "CCSDS_OMM_VERS": "2.0",
    "COMMENT": "GENERATED VIA SPACE-TRACK.ORG API",
    "CREATION_DATE": "2025-03-19T02:27:03",
    "ORIGINATOR": "18 SPCS",
    "OBJECT_NAME": "NAVSTAR 59 (USA 192)",
    "OBJECT_ID": "2006-052A",
    "CENTER_NAME": "EARTH",
    "REF_FRAME": "TEME",
    "TIME_SYSTEM": "UTC",
    "MEAN_ELEMENT_THEORY": "SGP4",
    "EPOCH": "2025-03-18T17:11:44.310912",
    "MEAN_MOTION": "2.00557687",
    "ECCENTRICITY": "0.00875910",
    "INCLINATION": "55.0436",
    "RA_OF_ASC_NODE": "232.0686",
    "ARG_OF_PERICENTER": "85.2017",
    "MEAN_ANOMALY": "275.7614",
    "EPHEMERIS_TYPE": "0",
    "CLASSIFICATION_TYPE": "U",
    "NORAD_CAT_ID": "29601",
    "ELEMENT_SET_NO": "999",
    "REV_AT_EPOCH": "13427",
    "BSTAR": "0.00000000000000",
    "MEAN_MOTION_DOT": "0.00000036",
    "MEAN_MOTION_DDOT": "0.0000000000000",
    "SEMIMAJOR_AXIS": "26560.870",
    "PERIOD": "717.998",
    "APOAPSIS": "20415.385",
    "PERIAPSIS": "19950.086",
    "OBJECT_TYPE": "PAYLOAD",
    "RCS_SIZE": "LARGE",
    "COUNTRY_CODE": "US",
    "LAUNCH_DATE": "2006-11-17",
    "SITE": "AFETR",
    "DECAY_DATE": null,
    "FILE": "4673449",
    "GP_ID": "283447422",
    "TLE_LINE0": "0 NAVSTAR 59 (USA 192)",
    "TLE_LINE1": "1 29601U 06052A   25077.71648508  .00000036  00000-0  00000-0 0  9990",
    "TLE_LINE2": "2 29601  55.0436 232.0686 0087591  85.2017 275.7614  2.00557687134272"
  },
  {
    "CCSDS_OMM_VERS": "2.0",
    "COMMENT": "GENERATED VIA SPACE-TRACK.ORG API",
    "CREATION_DATE": "2025-03-19T02:27:03",
    "ORIGINATOR": "18 SPCS",
    "OBJECT_NAME": "NAVSTAR 65 (USA 213)",
    "OBJECT_ID": "2010-022A",
    "CENTER_NAME": "EARTH",
    "REF_FRAME": "TEME",
    "TIME_SYSTEM": "UTC",
    "MEAN_ELEMENT_THEORY": "SGP4",
    "EPOCH": "2025-03-18T17:32:38.445792",
    "MEAN_MOTION": "2.00565395",
    "ECCENTRICITY": "0.01216390",
    "INCLINATION": "54.3650",
    "RA_OF_ASC_NODE": "226.9171",
    "ARG_OF_PERICENTER": "63.7620",
    "MEAN_ANOMALY": "279.3442",
    "EPHEMERIS_TYPE": "0",
    "CLASSIFICATION_TYPE": "U",
    "NORAD_CAT_ID": "36585",
    "ELEMENT_SET_NO": "999",
    "REV_AT_EPOCH": "10845",
    "BSTAR": "0.00000000000000",
    "MEAN_MOTION_DOT": "0.00000034",
    "MEAN_MOTION_DDOT": "0.0000000000000",
    "SEMIMAJOR_AXIS": "26560.190",
    "PERIOD": "717.970",
    "APOAPSIS": "20505.130",
    "PERIAPSIS": "19858.979",
    "OBJECT_TYPE": "PAYLOAD",
    "RCS_SIZE": "LARGE",
    "COUNTRY_CODE": "US",
    "LAUNCH_DATE": "2010-05-28",
    "SITE": "AFETR",
    "DECAY_DATE": null,
    "FILE": "4673449",
    "GP_ID": "283451152",
    "TLE_LINE0": "0 NAVSTAR 65 (USA 213)",
    "TLE_LINE1": "1 36585U 10022A   25077.73100053  .00000034  00000-0  00000-0 0  9999",
    "TLE_LINE2": "2 36585  54.3650 226.9171 0121639  63.7620 279.3442  2.00565395108450"
  },
  {
    "CCSDS_OMM_VERS": "2.0",
    "COMMENT": "GENERATED VIA SPACE-TRACK.ORG API",
    "CREATION_DATE": "2025-03-19T06:36:35",
    "ORIGINATOR": "18 SPCS",
    "OBJECT_NAME": "NAVSTAR 68 (USA 242)",
    "OBJECT_ID": "2013-023A",
    "CENTER_NAME": "EARTH",
    "REF_FRAME": "TEME",
    "TIME_SYSTEM": "UTC",
    "MEAN_ELEMENT_THEORY": "SGP4",
    "EPOCH": "2025-03-18T23:32:55.131360",
    "MEAN_MOTION": "2.00561858",
    "ECCENTRICITY": "0.01329910",
    "INCLINATION": "54.8752",
    "RA_OF_ASC_NODE": "287.4744",
    "ARG_OF_PERICENTER": "46.9529",
    "MEAN_ANOMALY": "314.1809",
    "EPHEMERIS_TYPE": "0",
    "CLASSIFICATION_TYPE": "U",
    "NORAD_CAT_ID": "39166",
    "ELEMENT_SET_NO": "999",
    "REV_AT_EPOCH": "8674",
    "BSTAR": "0.00000000000000",
    "MEAN_MOTION_DOT": "-0.00000006",
    "MEAN_MOTION_DDOT": "0.0000000000000",
    "SEMIMAJOR_AXIS": "26560.502",
    "PERIOD": "717.983",
    "APOAPSIS": "20535.598",
    "PERIAPSIS": "19829.136",
    "OBJECT_TYPE": "PAYLOAD",
    "RCS_SIZE": "LARGE",
    "COUNTRY_CODE": "US",
    "LAUNCH_DATE": "2013-05-15",
    "SITE": "AFETR",
    "DECAY_DATE": null,
    "FILE": "4673535",
    "GP_ID": "283470562",
    "TLE_LINE0": "0 NAVSTAR 68 (USA 242)",
    "TLE_LINE1": "1 39166U 13023A   25077.98119365 -.00000006  00000-0  00000+0 0  9993",
    "TLE_LINE2": "2 39166  54.8752 287.4744 0132991  46.9529 314.1809  2.00561858 86740"
  },
  {
    "CCSDS_OMM_VERS": "2.0",
    "COMMENT": "GENERATED VIA SPACE-TRACK.ORG API",
    "CREATION_DATE": "2025-03-19T14:36:17",
    "ORIGINATOR": "18 SPCS",
    "OBJECT_NAME": "NAVSTAR 43 (USA 132)",
    "OBJECT_ID": "1997-035A",
    "CENTER_NAME": "EARTH",
    "REF_FRAME": "TEME",
    "TIME_SYSTEM": "UTC",
    "MEAN_ELEMENT_THEORY": "SGP4",
    "EPOCH": "2025-03-18T23:55:30.358560",
    "MEAN_MOTION": "2.00562658",
    "ECCENTRICITY": "0.00875530",
    "INCLINATION": "55.7688",
    "RA_OF_ASC_NODE": "116.3810",
    "ARG_OF_PERICENTER": "53.8413",
    "MEAN_ANOMALY": "307.0378",
    "EPHEMERIS_TYPE": "0",
    "CLASSIFICATION_TYPE": "U",
    "NORAD_CAT_ID": "24876",
    "ELEMENT_SET_NO": "999",
    "REV_AT_EPOCH": "20262",
    "BSTAR": "0.00000000000000",
    "MEAN_MOTION_DOT": "0.00000019",
    "MEAN_MOTION_DDOT": "0.0000000000000",
    "SEMIMAJOR_AXIS": "26560.431",
    "PERIOD": "717.980",
    "APOAPSIS": "20414.841",
    "PERIAPSIS": "19949.752",
    "OBJECT_TYPE": "PAYLOAD",
    "RCS_SIZE": "LARGE",
    "COUNTRY_CODE": "US",
    "LAUNCH_DATE": "1997-07-23",
    "SITE": "AFETR",
    "DECAY_DATE": null,
    "FILE": "4673903",
    "GP_ID": "283479774",
    "TLE_LINE0": "0 NAVSTAR 43 (USA 132)",
    "TLE_LINE1": "1 24876U 97035A   25077.99687915  .00000019  00000-0  00000+0 0  9995",
    "TLE_LINE2": "2 24876  55.7688 116.3810 0087553  53.8413 307.0378  2.00562658202624"
  }
]
